STARLINK-4558           
1 53426U 22097AQ  22247.25001157  .00021498  00000+0  15727-3 0  9996
2 53426  53.2189 124.0359 0001198  79.3221  83.7191 15.73189170  4372
STARLINK-4541           
1 53427U 22097AR  22247.58335648  .00015306  00000+0  11320-3 0  9994
2 53427  53.2181 122.3862 0000878  97.6892 153.1786 15.73214890  4422
STARLINK-4540           
1 53428U 22097AS  22247.58335648  .00008533  00000+0  65105-4 0  9990
2 53428  53.2190 122.3795 0000991  89.1718 164.6787 15.73216769  4422
STARLINK-4543           
1 53429U 22097AT  22247.58335648  .00052098  00000+0  37341-3 0  9996
2 53429  53.2192 122.3806 0001081 106.3135 146.9978 15.73194433  4422
STARLINK-4538           
1 53430U 22097AU  22247.25001157  .00012404  00000+0  92642-4 0  9990
2 53430  53.2183 124.0318 0001094  81.2279  84.2083 15.73205221  4378
STARLINK-4548           
1 53431U 22097AV  22247.25001157  .00020837  00000+0  15251-3 0  9990
2 53431  53.2189 124.0344 0000856  64.5070  99.1105 15.73200574  4378
STARLINK-4557           
1 53432U 22097AW  22247.25001157 -.00047619  00000+0 -33590-3 0  9996
2 53432  53.2181 124.0292 0000877  75.1813  92.0097 15.73262696  4374
STARLINK-4549           
1 53433U 22097AX  22247.25001157 -.00048065  00000+0 -33916-3 0  9995
2 53433  53.2188 124.0292 0001030  74.9483  91.0590 15.73258713  4376
STARLINK-4498           
1 53434U 22097AY  22247.25001157 -.00061277  00000+0 -43391-3 0  9994
2 53434  53.2188 124.0248 0001035  77.3631  91.0634 15.73278555  4370
STARLINK-4542           
1 53435U 22097AZ  22247.25001157  .00022887  00000+0  16718-3 0  9990
2 53435  53.2180 124.0296 0000970  78.8366  87.8093 15.73180682  4379
STARLINK-4527           
1 53436U 22097BA  22247.25001157 -.00027015  00000+0 -18830-3 0  9998
2 53436  53.2187 124.0234 0001106  71.7277  97.2701 15.73247724  4376
STARLINK-4526           
1 53438U 22097BC  22247.25001157  .00002919  00000+0  25192-4 0  9994
2 53438  53.2189 124.0226 0001102  84.2737  85.3469 15.73215128  4379
STARLINK-4519           
1 53439U 22097BD  22247.25001157 -.00063969  00000+0 -45334-3 0  9998
2 53439  53.2191 124.0212 0000642  80.3558  89.8717 15.73278268  4373
2022-098A               
1 53444U 22098A   22247.47150275  .00003393  00000+0  21971-3 0  9999
2 53444  97.5294 343.3436 0012509 160.1159 328.6648 15.08754621  3812
2022-098B               
1 53445U 22098B   22247.53781250  .00002279  00000+0  14608-3 0  9991
2 53445  97.5331 343.4443 0010009 171.1198  16.4158 15.09486396  3801
2022-098C               
1 53446U 22098C   22247.46997683 -.00022315  00000+0 -14154-2 0  9993
2 53446  97.5344 343.3624 0013020 164.2856 326.5088 15.08864688  3794
2022-098D               
1 53447U 22098D   22247.54472222  .00002448  00000+0  15820-3 0  9995
2 53447  97.5266 343.4105 0011592 166.3967  24.0274 15.09107154  3809
2022-098E               
1 53448U 22098E   22247.54187500 -.00003833  00000+0 -23682-3 0  9994
2 53448  97.5334 343.4413 0012764 173.2005  18.0071 15.09228783  3800
2022-098F               
1 53449U 22098F   22247.54091435  .00002341  00000+0  15035-3 0  9990
2 53449  97.5280 343.4232 0011525 173.3625  21.1035 15.09377869  3808
2022-098G               
1 53450U 22098G   22247.53524306  .00002254  00000+0  14419-3 0  9997
2 53450  97.5329 343.4440 0009064 171.4005  10.5633 15.09577907  3802
2022-098H               
1 53451U 22098H   22247.53391204  .00002216  00000+0  14154-3 0  9991
2 53451  97.5380 343.4623 0009590 175.4037   6.4466 15.09655540  3804
2022-098J               
1 53452U 22098J   22247.53289352  .00002214  00000+0  14102-3 0  9993
2 53452  97.5282 343.4309 0009510 177.8226   6.9631 15.09749425  3800
2022-098K               
1 53453U 22098K   22247.53163194  .00002167  00000+0  13781-3 0  9998
2 53453  97.5330 343.4497 0010184 181.3782   4.0098 15.09830619  3801
2022-098L               
1 53454U 22098L   22247.31122865  .00003655  00000+0  22817-3 0  9998
2 53454  97.5282 343.2222 0011749 190.0389 255.8731 15.10062763  3775
2022-098M               
1 53455U 22098M   22247.31104365  .00003623  00000+0  22606-3 0  9995
2 53455  97.5295 343.2302 0011768 190.6267 255.8897 15.10080271  3778
2022-098N               
1 53456U 22098N   22247.52858796  .00003615  00000+0  22536-3 0  9996
2 53456  97.5266 343.4339 0011617 189.5369   2.4560 15.10121016  3802
2022-098P               
1 53457U 22098P   22247.52577546  .00003704  00000+0  22981-3 0  9991
2 53457  97.5269 343.4384 0010854 192.5649 359.2219 15.10288106  3801
2022-098Q               
1 53458U 22098Q   22247.52712963  .00003640  00000+0  22628-3 0  9993
2 53458  97.5304 343.4537 0011133 191.6463   2.9559 15.10220412  3802
2022-098R               
1 53459U 22098R   22247.52473380  .00003701  00000+0  22930-3 0  9995
2 53459  97.5292 343.4480 0010628 194.0008 356.7277 15.10338178  3802
HSU-SAT1                
1 53462U 98067UB  22247.14229732  .00026017  00000+0  43055-3 0  9992
2 53462  51.6411 305.2038 0005705 221.0772 138.9788 15.51997966  3543
FUTABA                  
1 53463U 98067UC  22247.33344516  .00030967  00000+0  50630-3 0  9998
2 53463  51.6408 304.2305 0005584 223.1531 136.9022 15.52240292  3573
TUMNANOSAT              
1 53464U 98067UD  22246.49455210  .00035683  00000+0  57865-3 0  9996
2 53464  51.6410 308.3784 0005522 222.1970 137.8595 15.52397372  3444
STARLINK-4415           
1 53465U 22099A   22247.25001157 -.01201406  00000+0 -20194-1 0  9995
2 53465  97.6554   6.4865 0002048  56.2075  77.7351 15.54717221  3759
STARLINK-4398           
1 53466U 22099B   22247.25001157 -.00028222  00000+0 -47272-3 0  9996
2 53466  97.6552   6.4785 0001361  53.3027 350.9544 15.51823284  3755
STARLINK-4394           
1 53467U 22099C   22247.25001157 -.00027882  00000+0 -46683-3 0  9993
2 53467  97.6555   6.4779 0001749  71.5234 333.4874 15.51831586  3750
STARLINK-4400           
1 53468U 22099D   22247.50001157 -.00034749  00000+0 -58308-3 0  9999
2 53468  97.6552   6.7418 0001640  61.1979 300.3489 15.51815353  3795
STARLINK-4399           
1 53469U 22099E   22247.25001157 -.00006891  00000+0 -11379-3 0  9996
2 53469  97.6543   6.4771 0001559  55.6963 351.6375 15.51831165  3753
STARLINK-4393           
1 53470U 22099F   22247.25001157 -.00014196  00000+0 -23654-3 0  9994
2 53470  97.6561   6.4763 0001861  55.0839 351.4945 15.51819537  3758
STARLINK-4316           
1 53471U 22099G   22247.25001157  .00078644  00000+0  13101-2 0  9996
2 53471  97.6553   6.4750 0002120  59.3919 349.3205 15.51736356  3753
STARLINK-4447           
1 53472U 22099H   22247.58335648  .00017127  00000+0  28840-3 0  9994
2 53472  97.6555   6.8293 0001434  60.1156  49.0486 15.51783983  3801
STARLINK-4383           
1 53473U 22099J   22247.25001157 -.00031784  00000+0 -53274-3 0  9990
2 53473  97.6552   6.4768 0001638  60.5334 350.6943 15.51828549  3751
STARLINK-4445           
1 53474U 22099K   22247.58335648  .00019204  00000+0  32312-3 0  9993
2 53474  97.6543   6.8281 0001334  66.5785  48.8288 15.51781037  3809
STARLINK-4389           
1 53475U 22099L   22247.25001157 -.00026601  00000+0 -44533-3 0  9992
2 53475  97.6548   6.4755 0001817  65.8539 346.1894 15.51825841  3755
STARLINK-4378           
1 53476U 22099M   22247.25001157  .00077699  00000+0  12940-2 0  9990
2 53476  97.6556   6.4752 0001879  70.5734 338.9322 15.51748292  3759
STARLINK-4412           
1 53477U 22099N   22247.25001157 -.00009663  00000+0 -16060-3 0  9997
2 53477  97.6555   6.4778 0001701  78.2798 335.2798 15.51780383  3750
STARLINK-4433           
1 53478U 22099P   22247.58335648 -.00203086  00000+0 -34826-2 0  9993
2 53478  97.6552   6.8308 0001358  69.1128  42.3717 15.51866299  3809
STARLINK-4436           
1 53479U 22099Q   22247.58335648  .00020720  00000+0  34847-3 0  9998
2 53479  97.6553   6.8303 0002126  69.7470  46.2208 15.51776056  3805
STARLINK-4442           
1 53480U 22099R   22247.58335648  .00020752  00000+0  34949-3 0  9998
2 53480  97.6557   6.8290 0001574  61.4129  52.1573 15.51738260  3808
STARLINK-4302           
1 53481U 22099S   22247.58335648 -.00017745  00000+0 -29710-3 0  9999
2 53481  97.6554   6.8306 0001578  75.8940  41.8250 15.51738861  3802
STARLINK-4360           
1 53482U 22099T   22247.58335648 -.00398342  00000+0 -69406-2 0  9990
2 53482  97.6555   6.8301 0001878  55.0903  61.5600 15.52104094  3805
STARLINK-4401           
1 53483U 22099U   22247.58335648 -.00045145  00000+0 -75890-3 0  9996
2 53483  97.6556   6.8311 0001282  63.9476  56.0963 15.51820813  3804
STARLINK-4426           
1 53484U 22099V   22247.58335648  .00022650  00000+0  38060-3 0  9999
2 53484  97.6558   6.8307 0001250  79.0322  39.2410 15.51782665  3807
STARLINK-4430           
1 53485U 22099W   22247.58335648  .00332946  00000+0  53810-2 0  9991
2 53485  97.6554   6.8291 0000797  41.5168  79.9001 15.51650358  3803
STARLINK-4431           
1 53486U 22099X   22247.58335648  .00012448  00000+0  21022-3 0  9995
2 53486  97.6546   6.8301 0001545  71.4517  47.8326 15.51781950  3806
STARLINK-4432           
1 53487U 22099Y   22247.58335648  .00021257  00000+0  35787-3 0  9997
2 53487  97.6540   6.8296 0000815  36.9571  85.9702 15.51743438  3809
STARLINK-4421           
1 53488U 22099Z   22247.58335648 -.00242637  00000+0 -41869-2 0  9994
2 53488  97.6550   6.8294 0001541  67.0475  53.8074 15.51831202  3807
STARLINK-4392           
1 53489U 22099AA  22247.58335648  .00010675  00000+0  18049-3 0  9993
2 53489  97.6542   6.8305 0001477  65.1720  59.5790 15.51792582  3807
STARLINK-4387           
1 53490U 22099AB  22247.58335648 -.00203658  00000+0 -34989-2 0  9992
2 53490  97.6549   6.8286 0001578  60.3622  62.0454 15.51815547  3807
STARLINK-4450           
1 53491U 22099AC  22247.25001157  .00003635  00000+0  62689-4 0  9993
2 53491  97.6554   6.4706 0001777  63.4912   1.7481 15.51773397  3754
